CCSDS_OMM_VERS = 2.0
CREATION_DATE  = 
ORIGINATOR     = 

OBJECT_NAME    = SL-3 R/B
OBJECT_ID      = 1988-032B
CENTER_NAME    = EARTH
REF_FRAME      = TEME
TIME_SYSTEM    = UTC
MEAN_ELEMENT_THEORY = SGP/SGP4

EPOCH          = 2026-03-31T12:32:14.297280
MEAN_MOTION    = 15.20152708
ECCENTRICITY   = .00266424
INCLINATION    = 97.5212
RA_OF_ASC_NODE = 73.7035
ARG_OF_PERICENTER = 154.1454
MEAN_ANOMALY   = 206.1119

EPHEMERIS_TYPE = 0
CLASSIFICATION_TYPE = U
NORAD_CAT_ID   = 19046
ELEMENT_SET_NO = 999
REV_AT_EPOCH   = 5542
BSTAR          = .30572415E-3
MEAN_MOTION_DOT = .6606E-4
MEAN_MOTION_DDOT = 0

CCSDS_OMM_VERS = 2.0
CREATION_DATE  = 
ORIGINATOR     = 

OBJECT_NAME    = SL-16 R/B
OBJECT_ID      = 1988-039B
CENTER_NAME    = EARTH
REF_FRAME      = TEME
TIME_SYSTEM    = UTC
MEAN_ELEMENT_THEORY = SGP/SGP4

EPOCH          = 2026-03-31T13:00:16.401600
MEAN_MOTION    = 14.19620134
ECCENTRICITY   = .00237374
INCLINATION    = 71.0172
RA_OF_ASC_NODE = 22.3403
ARG_OF_PERICENTER = 303.1022
MEAN_ANOMALY   = 56.7824

EPHEMERIS_TYPE = 0
CLASSIFICATION_TYPE = U
NORAD_CAT_ID   = 19120
ELEMENT_SET_NO = 999
REV_AT_EPOCH   = 96148
BSTAR          = .66662602E-4
MEAN_MOTION_DOT = .93E-6
MEAN_MOTION_DDOT = 0

CCSDS_OMM_VERS = 2.0
CREATION_DATE  = 
ORIGINATOR     = 

OBJECT_NAME    = COSMOS 1953
OBJECT_ID      = 1988-050A
CENTER_NAME    = EARTH
REF_FRAME      = TEME
TIME_SYSTEM    = UTC
MEAN_ELEMENT_THEORY = SGP/SGP4

EPOCH          = 2026-03-31T03:51:58.150944
MEAN_MOTION    = 15.28860160
ECCENTRICITY   = .0012214
INCLINATION    = 82.5073
RA_OF_ASC_NODE = 136.6473
ARG_OF_PERICENTER = 55.6435
MEAN_ANOMALY   = 304.5958

EPHEMERIS_TYPE = 0
CLASSIFICATION_TYPE = U
NORAD_CAT_ID   = 19210
ELEMENT_SET_NO = 999
REV_AT_EPOCH   = 4106
BSTAR          = .31871E-3
MEAN_MOTION_DOT = .8988E-4
MEAN_MOTION_DDOT = 0

CCSDS_OMM_VERS = 2.0
CREATION_DATE  = 
ORIGINATOR     = 

OBJECT_NAME    = SL-8 R/B
OBJECT_ID      = 1988-053B
CENTER_NAME    = EARTH
REF_FRAME      = TEME
TIME_SYSTEM    = UTC
MEAN_ELEMENT_THEORY = SGP/SGP4

EPOCH          = 2026-03-31T08:34:08.178240
MEAN_MOTION    = 14.38931350
ECCENTRICITY   = .00214166
INCLINATION    = 74.0460
RA_OF_ASC_NODE = 72.5228
ARG_OF_PERICENTER = 248.9324
MEAN_ANOMALY   = 218.3039

EPHEMERIS_TYPE = 0
CLASSIFICATION_TYPE = U
NORAD_CAT_ID   = 19257
ELEMENT_SET_NO = 999
REV_AT_EPOCH   = 97971
BSTAR          = .140909E-3
MEAN_MOTION_DOT = .409E-5
MEAN_MOTION_DDOT = 0

CCSDS_OMM_VERS = 2.0
CREATION_DATE  = 
ORIGINATOR     = 

OBJECT_NAME    = COSMOS 1975
OBJECT_ID      = 1988-093A
CENTER_NAME    = EARTH
REF_FRAME      = TEME
TIME_SYSTEM    = UTC
MEAN_ELEMENT_THEORY = SGP/SGP4

EPOCH          = 2026-03-31T11:07:24.204576
MEAN_MOTION    = 15.28374642
ECCENTRICITY   = .00133829
INCLINATION    = 82.5156
RA_OF_ASC_NODE = 95.8171
ARG_OF_PERICENTER = 94.4824
MEAN_ANOMALY   = 265.7944

EPHEMERIS_TYPE = 0
CLASSIFICATION_TYPE = U
NORAD_CAT_ID   = 19573
ELEMENT_SET_NO = 999
REV_AT_EPOCH   = 2273
BSTAR          = .31111839E-3
MEAN_MOTION_DOT = .865E-4
MEAN_MOTION_DDOT = 0

CCSDS_OMM_VERS = 2.0
CREATION_DATE  = 
ORIGINATOR     = 

OBJECT_NAME    = SL-14 R/B
OBJECT_ID      = 1988-093B
CENTER_NAME    = EARTH
REF_FRAME      = TEME
TIME_SYSTEM    = UTC
MEAN_ELEMENT_THEORY = SGP/SGP4

EPOCH          = 2026-03-31T13:44:12.267744
MEAN_MOTION    = 14.85683280
ECCENTRICITY   = .00198867
INCLINATION    = 82.5342
RA_OF_ASC_NODE = 21.5055
ARG_OF_PERICENTER = 329.7123
MEAN_ANOMALY   = 203.1843

EPHEMERIS_TYPE = 0
CLASSIFICATION_TYPE = U
NORAD_CAT_ID   = 19574
ELEMENT_SET_NO = 999
REV_AT_EPOCH   = 426
BSTAR          = .82472118E-4
MEAN_MOTION_DOT = .741E-5
MEAN_MOTION_DDOT = 0

CCSDS_OMM_VERS = 2.0
CREATION_DATE  = 
ORIGINATOR     = 

OBJECT_NAME    = SL-16 R/B
OBJECT_ID      = 1988-102B
CENTER_NAME    = EARTH
REF_FRAME      = TEME
TIME_SYSTEM    = UTC
MEAN_ELEMENT_THEORY = SGP/SGP4

EPOCH          = 2026-03-31T10:45:53.830944
MEAN_MOTION    = 14.16153588
ECCENTRICITY   = .00152281
INCLINATION    = 70.9970
RA_OF_ASC_NODE = 105.7134
ARG_OF_PERICENTER = 329.4256
MEAN_ANOMALY   = 30.5978

EPHEMERIS_TYPE = 0
CLASSIFICATION_TYPE = U
NORAD_CAT_ID   = 19650
ELEMENT_SET_NO = 999
REV_AT_EPOCH   = 92997
BSTAR          = .4646294E-4
MEAN_MOTION_DOT = .44E-6
MEAN_MOTION_DDOT = 0

CCSDS_OMM_VERS = 2.0
CREATION_DATE  = 
ORIGINATOR     = 

OBJECT_NAME    = INTERCOSMOS 24
OBJECT_ID      = 1989-080A
CENTER_NAME    = EARTH
REF_FRAME      = TEME
TIME_SYSTEM    = UTC
MEAN_ELEMENT_THEORY = SGP/SGP4

EPOCH          = 2026-03-31T00:15:46.157760
MEAN_MOTION    = 12.59585250
ECCENTRICITY   = .11869129
INCLINATION    = 82.6013
RA_OF_ASC_NODE = 90.5155
ARG_OF_PERICENTER = 243.2874
MEAN_ANOMALY   = 104.2023

EPHEMERIS_TYPE = 0
CLASSIFICATION_TYPE = U
NORAD_CAT_ID   = 20261
ELEMENT_SET_NO = 999
REV_AT_EPOCH   = 66948
BSTAR          = .18090152E-3
MEAN_MOTION_DOT = .612E-5
MEAN_MOTION_DDOT = 0

CCSDS_OMM_VERS = 2.0
CREATION_DATE  = 
ORIGINATOR     = 

OBJECT_NAME    = SL-14 R/B
OBJECT_ID      = 1989-080C
CENTER_NAME    = EARTH
REF_FRAME      = TEME
TIME_SYSTEM    = UTC
MEAN_ELEMENT_THEORY = SGP/SGP4

EPOCH          = 2026-03-31T11:32:19.468032
MEAN_MOTION    = 12.50514838
ECCENTRICITY   = .12309031
INCLINATION    = 82.5951
RA_OF_ASC_NODE = 159.2034
ARG_OF_PERICENTER = 134.9651
MEAN_ANOMALY   = 235.8177

EPHEMERIS_TYPE = 0
CLASSIFICATION_TYPE = U
NORAD_CAT_ID   = 20262
ELEMENT_SET_NO = 999
REV_AT_EPOCH   = 66287
BSTAR          = .13785231E-3
MEAN_MOTION_DOT = .487E-5
MEAN_MOTION_DDOT = 0

CCSDS_OMM_VERS = 2.0
CREATION_DATE  = 
ORIGINATOR     = 

OBJECT_NAME    = DELTA 1 R/B
OBJECT_ID      = 1989-089B
CENTER_NAME    = EARTH
REF_FRAME      = TEME
TIME_SYSTEM    = UTC
MEAN_ELEMENT_THEORY = SGP/SGP4

EPOCH          = 2026-03-31T13:19:10.138944
MEAN_MOTION    = 14.50681580
ECCENTRICITY   = .00703637
INCLINATION    = 97.0689
RA_OF_ASC_NODE = 294.5129
ARG_OF_PERICENTER = 54.2402
MEAN_ANOMALY   = 306.5312

EPHEMERIS_TYPE = 0
CLASSIFICATION_TYPE = U
NORAD_CAT_ID   = 20323
ELEMENT_SET_NO = 999
REV_AT_EPOCH   = 89890
BSTAR          = .12689547E-3
MEAN_MOTION_DOT = .479E-5
MEAN_MOTION_DDOT = 0

CCSDS_OMM_VERS = 2.0
CREATION_DATE  = 
ORIGINATOR     = 

OBJECT_NAME    = ARIANE 40 R/B
OBJECT_ID      = 1990-005H
CENTER_NAME    = EARTH
REF_FRAME      = TEME
TIME_SYSTEM    = UTC
MEAN_ELEMENT_THEORY = SGP/SGP4

EPOCH          = 2026-03-31T10:12:14.023584
MEAN_MOTION    = 14.39884987
ECCENTRICITY   = .00111009
INCLINATION    = 98.3038
RA_OF_ASC_NODE = 150.4341
ARG_OF_PERICENTER = 135.3902
MEAN_ANOMALY   = 224.8182

EPHEMERIS_TYPE = 0
CLASSIFICATION_TYPE = U
NORAD_CAT_ID   = 20443
ELEMENT_SET_NO = 999
REV_AT_EPOCH   = 89593
BSTAR          = .12766233E-3
MEAN_MOTION_DOT = .359E-5
MEAN_MOTION_DDOT = 0

CCSDS_OMM_VERS = 2.0
CREATION_DATE  = 
ORIGINATOR     = 

OBJECT_NAME    = DELTA 2 R/B(1)
OBJECT_ID      = 1990-008B
CENTER_NAME    = EARTH
REF_FRAME      = TEME
TIME_SYSTEM    = UTC
MEAN_ELEMENT_THEORY = SGP/SGP4

EPOCH          = 2026-03-31T05:37:49.783008
MEAN_MOTION    = 15.58885002
ECCENTRICITY   = .0077116
INCLINATION    = 35.6038
RA_OF_ASC_NODE = 33.1588
ARG_OF_PERICENTER = 100.9790
MEAN_ANOMALY   = 259.9633

EPHEMERIS_TYPE = 0
CLASSIFICATION_TYPE = U
NORAD_CAT_ID   = 20453
ELEMENT_SET_NO = 999
REV_AT_EPOCH   = 92949
BSTAR          = .79855E-3
MEAN_MOTION_DOT = .74414E-3
MEAN_MOTION_DDOT = 0

